[{"OBJECT_NAME":"CUBESX-HSE 3 (RS42S)","OBJECT_ID":"2023-091N","EPOCH":"2026-03-09T22:57:25.321248","MEAN_MOTION":15.286147,"ECCENTRICITY":0.00127191,"INCLINATION":97.5203,"RA_OF_ASC_NODE":133.4295,"ARG_OF_PERICENTER":86.5376,"MEAN_ANOMALY":273.7318,"EPHEMERIS_TYPE":0,"CLASSIFICATION_TYPE":"U","NORAD_CAT_ID":57178,"ELEMENT_SET_NO":999,"REV_AT_EPOCH":14925,"BSTAR":0.00059055694,"MEAN_MOTION_DOT":0.00016417,"MEAN_MOTION_DDOT":0},{"OBJECT_NAME":"STARLINK-30502","OBJECT_ID":"2023-151K","EPOCH":"2026-03-09T01:50:18.055968","MEAN_MOTION":15.27576128,"ECCENTRICITY":0.00019247,"INCLINATION":43.0036,"RA_OF_ASC_NODE":339.3691,"ARG_OF_PERICENTER":254.6619,"MEAN_ANOMALY":105.402,"EPHEMERIS_TYPE":0,"CLASSIFICATION_TYPE":"U","NORAD_CAT_ID":57973,"ELEMENT_SET_NO":999,"REV_AT_EPOCH":13567,"BSTAR":-0.00011181,"MEAN_MOTION_DOT":-3.338e-5,"MEAN_MOTION_DDOT":0}]
